{"type": "FeatureCollection", "features": [ {"type": "Feature", "properties": {"norad_id": 66796, "name": "STARLINK-35964", "group": "last-30-days", "lat": 32.41002654912473, "lon": -97.73498930284072, "alt_km": 323.71193535677503, "timestamp": "2025-12-17T21:39:44.491526+00:00", "meta": {"OBJECT_NAME": "STARLINK-35964", "OBJECT_ID": "2025-278F", "EPOCH": "2025-12-17T14:00:03.000384", "MEAN_MOTION": 15.80874656, "ECCENTRICITY": 0.00016978, "INCLINATION": 42.9933, "RA_OF_ASC_NODE": 221.2607, "ARG_OF_PERICENTER": 266.0108, "MEAN_ANOMALY": 126.849, "EPHEMERIS_TYPE": 0, "CLASSIFICATION_TYPE": "U", "NORAD_CAT_ID": 66796, "ELEMENT_SET_NO": 999, "REV_AT_EPOCH": 357, "BSTAR": -2.5294357e-05, "MEAN_MOTION_DOT": -5.571e-05, "MEAN_MOTION_DDOT": 0}, "tle": {"line1": "1 66796U 25278F   25351.58336806 -.00005571  00000+0 -25294-4 0  9998", "line2": "2 66796  42.9933 221.2607 0001697 266.0108 126.8490 15.80874656  3577"}}, "geometry": {"type": "Point", "coordinates": [-97.73498930284072, 32.41002654912473]}}, {"type": "Feature", "properties": {"norad_id": 66797, "name": "STARLINK-36099", "group": "last-30-days", "lat": -41.679888704722956, "lon": 147.70317234550618, "alt_km": 351.06169153602605, "timestamp": "2025-12-17T21:39:44.491536+00:00", "meta": {"OBJECT_NAME": "STARLINK-36099", "OBJECT_ID": "2025-278G", "EPOCH": "2025-12-17T14:00:03.000384", "MEAN_MOTION": 15.74769817, "ECCENTRICITY": 0.00016557, "INCLINATION": 42.9987, "RA_OF_ASC_NODE": 222.4828, "ARG_OF_PERICENTER": 270.6631, "MEAN_ANOMALY": 0.8649, "EPHEMERIS_TYPE": 0, "CLASSIFICATION_TYPE": "U", "NORAD_CAT_ID": 66797, "ELEMENT_SET_NO": 999, "REV_AT_EPOCH": 379, "BSTAR": -0.014062678, "MEAN_MOTION_DOT": -0.01862377, "MEAN_MOTION_DDOT": 0}, "tle": {"line1": "1 66797U 25278G   25351.58336806 -.01862377  00000+0 -14063-1 0  9994", "line2": "2 66797  42.9987 222.4828 0001655 270.6631   0.8649 15.74769817  3797"}}, "geometry": {"type": "Point", "coordinates": [147.70317234550618, -41.679888704722956]}}, {"type": "Feature", "properties": {"norad_id": 66798, "name": "STARLINK-36041", "group": "last-30-days", "lat": -41.26553750762312, "lon": 150.20644830285286, "alt_km": 351.18080244657085, "timestamp": "2025-12-17T21:39:44.491545+00:00", "meta": {"OBJECT_NAME": "STARLINK-36041", "OBJECT_ID": "2025-278H", "EPOCH": "2025-12-17T14:00:03.000384", "MEAN_MOTION": 15.74776959, "ECCENTRICITY": 0.00016258, "INCLINATION": 42.9988, "RA_OF_ASC_NODE": 222.4771, "ARG_OF_PERICENTER": 257.326, "MEAN_ANOMALY": 16.1201, "EPHEMERIS_TYPE": 0, "CLASSIFICATION_TYPE": "U", "NORAD_CAT_ID": 66798, "ELEMENT_SET_NO": 999, "REV_AT_EPOCH": 357, "BSTAR": -0.014140683, "MEAN_MOTION_DOT": -0.01871829, "MEAN_MOTION_DDOT": 0}, "tle": {"line1": "1 66798U 25278H   25351.58336806 -.01871829  00000+0 -14141-1 0  9994", "line2": "2 66798  42.9988 222.4771 0001625 257.3260  16.1201 15.74776959  3578"}}, "geometry": {"type": "Point", "coordinates": [150.20644830285286, -41.26553750762312]}}, {"type": "Feature", "properties": {"norad_id": 66799, "name": "STARLINK-36044", "group": "last-30-days", "lat": -40.799815068070465, "lon": 152.6656269449727, "alt_km": 351.1208496671343, "timestamp": "2025-12-17T21:39:44.491554+00:00", "meta": {"OBJECT_NAME": "STARLINK-36044", "OBJECT_ID": "2025-278J", "EPOCH": "2025-12-17T14:00:03.000384", "MEAN_MOTION": 15.7478268, "ECCENTRICITY": 0.00016939, "INCLINATION": 42.9988, "RA_OF_ASC_NODE": 222.4733, "ARG_OF_PERICENTER": 259.36, "MEAN_ANOMALY": 16.0023, "EPHEMERIS_TYPE": 0, "CLASSIFICATION_TYPE": "U", "NORAD_CAT_ID": 66799, "ELEMENT_SET_NO": 999, "REV_AT_EPOCH": 373, "BSTAR": -0.014224934, "MEAN_MOTION_DOT": -0.01881972, "MEAN_MOTION_DDOT": 0}, "tle": {"line1": "1 66799U 25278J   25351.58336806 -.01881972  00000+0 -14225-1 0  9998", "line2": "2 66799  42.9988 222.4733 0001693 259.3600  16.0023 15.74782680  3739"}}, "geometry": {"type": "Point", "coordinates": [152.6656269449727, -40.799815068070465]}}, {"type": "Feature", "properties": {"norad_id": 66800, "name": "STARLINK-35996", "group": "last-30-days", "lat": -39.71792949563867, "lon": 157.4605241561867, "alt_km": 351.10954786391267, "timestamp": "2025-12-17T21:39:44.491564+00:00", "meta": {"OBJECT_NAME": "STARLINK-35996", "OBJECT_ID": "2025-278K", "EPOCH": "2025-12-17T14:00:03.000384", "MEAN_MOTION": 15.74769461, "ECCENTRICITY": 0.00016401, "INCLINATION": 42.999, "RA_OF_ASC_NODE": 222.4632, "ARG_OF_PERICENTER": 261.5002, "MEAN_ANOMALY": 17.6946, "EPHEMERIS_TYPE": 0, "CLASSIFICATION_TYPE": "U", "NORAD_CAT_ID": 66800, "ELEMENT_SET_NO": 999, "REV_AT_EPOCH": 352, "BSTAR": -0.014029851, "MEAN_MOTION_DOT": -0.0185856, "MEAN_MOTION_DDOT": 0}, "tle": {"line1": "1 66800U 25278K   25351.58336806 -.01858560  00000+0 -14030-1 0  9992", "line2": "2 66800  42.9990 222.4632 0001640 261.5002  17.6946 15.74769461  3526"}}, "geometry": {"type": "Point", "coordinates": [157.4605241561867, -39.71792949563867]}}, {"type": "Feature", "properties": {"norad_id": 66801, "name": "STARLINK-36080", "group": "last-30-days", "lat": -36.19747595189834, "lon": 168.74649560068772, "alt_km": 350.85869638875647, "timestamp": "2025-12-17T21:39:44.491575+00:00", "meta": {"OBJECT_NAME": "STARLINK-36080", "OBJECT_ID": "2025-278L", "EPOCH": "2025-12-17T14:00:03.000384", "MEAN_MOTION": 15.74787983, "ECCENTRICITY": 0.00021591, "INCLINATION": 42.9989, "RA_OF_ASC_NODE": 222.4374, "ARG_OF_PERICENTER": 256.7354, "MEAN_ANOMALY": 32.033, "EPHEMERIS_TYPE": 0, "CLASSIFICATION_TYPE": "U", "NORAD_CAT_ID": 66801, "ELEMENT_SET_NO": 999, "REV_AT_EPOCH": 373, "BSTAR": -0.014205412, "MEAN_MOTION_DOT": -0.01880552, "MEAN_MOTION_DDOT": 0}, "tle": {"line1": "1 66801U 25278L   25351.58336806 -.01880552  00000+0 -14205-1 0  9993", "line2": "2 66801  42.9989 222.4374 0002159 256.7354  32.0330 15.74787983  3730"}}, "geometry": {"type": "Point", "coordinates": [168.74649560068772, -36.19747595189834]}}, {"type": "Feature", "properties": {"norad_id": 66802, "name": "STARLINK-35604", "group": "last-30-days", "lat": -40.28430267228468, "lon": 155.07842925933383, "alt_km": 351.2531918277009, "timestamp": "2025-12-17T21:39:44.491585+00:00", "meta": {"OBJECT_NAME": "STARLINK-35604", "OBJECT_ID": "2025-278M", "EPOCH": "2025-12-17T14:00:03.000384", "MEAN_MOTION": 15.74768659, "ECCENTRICITY": 0.00014334, "INCLINATION": 42.9988, "RA_OF_ASC_NODE": 222.4674, "ARG_OF_PERICENTER": 260.515, "MEAN_ANOMALY": 16.7647, "EPHEMERIS_TYPE": 0, "CLASSIFICATION_TYPE": "U", "NORAD_CAT_ID": 66802, "ELEMENT_SET_NO": 999, "REV_AT_EPOCH": 373, "BSTAR": -0.014016439, "MEAN_MOTION_DOT": -0.01856778, "MEAN_MOTION_DDOT": 0}, "tle": {"line1": "1 66802U 25278M   25351.58336806 -.01856778  00000+0 -14016-1 0  9997", "line2": "2 66802  42.9988 222.4674 0001433 260.5150  16.7647 15.74768659  3733"}}, "geometry": {"type": "Point", "coordinates": [155.07842925933383, -40.28430267228468]}}, {"type": "Feature", "properties": {"norad_id": 66803, "name": "STARLINK-35565", "group": "last-30-days", "lat": -39.09881094465638, "lon": 159.81705795078142, "alt_km": 351.3056680609725, "timestamp": "2025-12-17T21:39:44.491594+00:00", "meta": {"OBJECT_NAME": "STARLINK-35565", "OBJECT_ID": "2025-278N", "EPOCH": "2025-12-17T14:00:03.000384", "MEAN_MOTION": 15.74780343, "ECCENTRICITY": 0.00014611, "INCLINATION": 42.999, "RA_OF_ASC_NODE": 222.4575, "ARG_OF_PERICENTER": 256.1681, "MEAN_ANOMALY": 24.9555, "EPHEMERIS_TYPE": 0, "CLASSIFICATION_TYPE": "U", "NORAD_CAT_ID": 66803, "ELEMENT_SET_NO": 999, "REV_AT_EPOCH": 382, "BSTAR": -0.014259706, "MEAN_MOTION_DOT": -0.01885578, "MEAN_MOTION_DDOT": 0}, "tle": {"line1": "1 66803U 25278N   25351.58336806 -.01885578  00000+0 -14260-1 0  9999", "line2": "2 66803  42.9990 222.4575 0001461 256.1681  24.9555 15.74780343  3821"}}, "geometry": {"type": "Point", "coordinates": [159.81705795078142, -39.09881094465638]}}, {"type": "Feature", "properties": {"norad_id": 66804, "name": "STARLINK-36038", "group": "last-30-days", "lat": -38.44013238698532, "lon": 162.1080765218749, "alt_km": 351.0466989771621, "timestamp": "2025-12-17T21:39:44.491603+00:00", "meta": {"OBJECT_NAME": "STARLINK-36038", "OBJECT_ID": "2025-278P", "EPOCH": "2025-12-17T14:00:03.000384", "MEAN_MOTION": 15.74777479, "ECCENTRICITY": 0.0001832, "INCLINATION": 42.9989, "RA_OF_ASC_NODE": 222.4535, "ARG_OF_PERICENTER": 257.2339, "MEAN_ANOMALY": 25.7924, "EPHEMERIS_TYPE": 0, "CLASSIFICATION_TYPE": "U", "NORAD_CAT_ID": 66804, "ELEMENT_SET_NO": 999, "REV_AT_EPOCH": 373, "BSTAR": -0.014123353, "MEAN_MOTION_DOT": -0.01870062, "MEAN_MOTION_DDOT": 0}, "tle": {"line1": "1 66804U 25278P   25351.58336806 -.01870062  00000+0 -14123-1 0  9990", "line2": "2 66804  42.9989 222.4535 0001832 257.2339  25.7924 15.74777479  3735"}}, "geometry": {"type": "Point", "coordinates": [162.1080765218749, -38.44013238698532]}}, {"type": "Feature", "properties": {"norad_id": 66805, "name": "STARLINK-36049", "group": "last-30-days", "lat": -36.986513677434104, "lon": 166.5774595626792, "alt_km": 351.19222101079686, "timestamp": "2025-12-17T21:39:44.491613+00:00", "meta": {"OBJECT_NAME": "STARLINK-36049", "OBJECT_ID": "2025-278Q", "EPOCH": "2025-12-17T14:00:03.000384", "MEAN_MOTION": 15.74774432, "ECCENTRICITY": 0.00015094, "INCLINATION": 42.999, "RA_OF_ASC_NODE": 222.4431, "ARG_OF_PERICENTER": 258.7023, "MEAN_ANOMALY": 28.1633, "EPHEMERIS_TYPE": 0, "CLASSIFICATION_TYPE": "U", "NORAD_CAT_ID": 66805, "ELEMENT_SET_NO": 999, "REV_AT_EPOCH": 373, "BSTAR": -0.014105134, "MEAN_MOTION_DOT": -0.01867459, "MEAN_MOTION_DDOT": 0}, "tle": {"line1": "1 66805U 25278Q   25351.58336806 -.01867459  00000+0 -14105-1 0  9997", "line2": "2 66805  42.9990 222.4431 0001509 258.7023  28.1633 15.74774432  3730"}}, "geometry": {"type": "Point", "coordinates": [166.5774595626792, -36.986513677434104]}}]}